{"type": "FeatureCollection", "features": [ {"type": "Feature", "properties": {"norad_id": 34375, "name": "IRIDIUM 33 DEB", "group": "iridium-33-debris", "lat": 1.6109432440732856, "lon": 1.897259041157804, "alt_km": 793.8616107771641, "timestamp": "2025-12-14T11:29:50.445485+00:00", "meta": {"OBJECT_NAME": "IRIDIUM 33 DEB", "OBJECT_ID": "1997-051FT", "EPOCH": "2025-12-13T12:44:43.081152", "MEAN_MOTION": 14.17994494, "ECCENTRICITY": 0.01033552, "INCLINATION": 86.4325, "RA_OF_ASC_NODE": 182.3799, "ARG_OF_PERICENTER": 124.2381, "MEAN_ANOMALY": 256.7084, "EPHEMERIS_TYPE": 0, "CLASSIFICATION_TYPE": "U", "NORAD_CAT_ID": 34375, "ELEMENT_SET_NO": 999, "REV_AT_EPOCH": 86723, "BSTAR": 0.00061178168, "MEAN_MOTION_DOT": 1.339e-05, "MEAN_MOTION_DDOT": 0}, "tle": {"line1": "1 34375U 97051FT  25347.53105418  .00001339  00000+0  61178-3 0  9993", "line2": "2 34375  86.4325 182.3799 0103355 124.2381 256.7084 14.17994494867239"}}, "geometry": {"type": "Point", "coordinates": [1.897259041157804, 1.6109432440732856]}}, {"type": "Feature", "properties": {"norad_id": 34376, "name": "IRIDIUM 33 DEB", "group": "iridium-33-debris", "lat": 71.38338706109249, "lon": 174.67980759103312, "alt_km": 666.2222894867236, "timestamp": "2025-12-14T11:29:50.445495+00:00", "meta": {"OBJECT_NAME": "IRIDIUM 33 DEB", "OBJECT_ID": "1997-051FU", "EPOCH": "2025-12-13T05:26:52.439712", "MEAN_MOTION": 14.62582751, "ECCENTRICITY": 0.00272182, "INCLINATION": 86.2989, "RA_OF_ASC_NODE": 6.321, "ARG_OF_PERICENTER": 165.0092, "MEAN_ANOMALY": 195.1933, "EPHEMERIS_TYPE": 0, "CLASSIFICATION_TYPE": "U", "NORAD_CAT_ID": 34376, "ELEMENT_SET_NO": 999, "REV_AT_EPOCH": 88014, "BSTAR": 0.0024180552, "MEAN_MOTION_DOT": 0.00012374, "MEAN_MOTION_DDOT": 0}, "tle": {"line1": "1 34376U 97051FU  25347.22699583  .00012374  00000+0  24181-2 0  9994", "line2": "2 34376  86.2989   6.3210 0027218 165.0092 195.1933 14.62582751880145"}}, "geometry": {"type": "Point", "coordinates": [174.67980759103312, 71.38338706109249]}}, {"type": "Feature", "properties": {"norad_id": 34486, "name": "IRIDIUM 33 DEB", "group": "iridium-33-debris", "lat": 6.671372064965462, "lon": -169.20053599479814, "alt_km": 577.791214116949, "timestamp": "2025-12-14T11:29:50.445505+00:00", "meta": {"OBJECT_NAME": "IRIDIUM 33 DEB", "OBJECT_ID": "1997-051GB", "EPOCH": "2025-12-13T12:48:30.008160", "MEAN_MOTION": 14.9585814, "ECCENTRICITY": 0.00137339, "INCLINATION": 86.394, "RA_OF_ASC_NODE": 11.6583, "ARG_OF_PERICENTER": 111.1727, "MEAN_ANOMALY": 14.2632, "EPHEMERIS_TYPE": 0, "CLASSIFICATION_TYPE": "U", "NORAD_CAT_ID": 34486, "ELEMENT_SET_NO": 999, "REV_AT_EPOCH": 88998, "BSTAR": 0.0024346584, "MEAN_MOTION_DOT": 0.00027349, "MEAN_MOTION_DDOT": 0}, "tle": {"line1": "1 34486U 97051GB  25347.53368065  .00027349  00000+0  24347-2 0  9990", "line2": "2 34486  86.3940  11.6583 0013733 111.1727  14.2632 14.95858140889983"}}, "geometry": {"type": "Point", "coordinates": [-169.20053599479814, 6.671372064965462]}}, {"type": "Feature", "properties": {"norad_id": 34487, "name": "IRIDIUM 33 DEB", "group": "iridium-33-debris", "lat": -39.65590939203935, "lon": -165.33287944410486, "alt_km": 757.2299147498588, "timestamp": "2025-12-14T11:29:50.445515+00:00", "meta": {"OBJECT_NAME": "IRIDIUM 33 DEB", "OBJECT_ID": "1997-051GC", "EPOCH": "2025-12-13T01:29:47.810688", "MEAN_MOTION": 14.43216844, "ECCENTRICITY": 0.00327796, "INCLINATION": 86.3434, "RA_OF_ASC_NODE": 12.2383, "ARG_OF_PERICENTER": 127.3536, "MEAN_ANOMALY": 296.0452, "EPHEMERIS_TYPE": 0, "CLASSIFICATION_TYPE": "U", "NORAD_CAT_ID": 34487, "ELEMENT_SET_NO": 999, "REV_AT_EPOCH": 88253, "BSTAR": 0.00027272149, "MEAN_MOTION_DOT": 9.43e-06, "MEAN_MOTION_DDOT": 0}, "tle": {"line1": "1 34487U 97051GC  25347.06235892  .00000943  00000+0  27272-3 0  9992", "line2": "2 34487  86.3434  12.2383 0032779 127.3536 296.0452 14.43216844882531"}}, "geometry": {"type": "Point", "coordinates": [-165.33287944410486, -39.65590939203935]}}, {"type": "Feature", "properties": {"norad_id": 34488, "name": "IRIDIUM 33 DEB", "group": "iridium-33-debris", "lat": 7.683850192860667, "lon": -54.55092212812665, "alt_km": 471.38631689341855, "timestamp": "2025-12-14T11:29:50.445526+00:00", "meta": {"OBJECT_NAME": "IRIDIUM 33 DEB", "OBJECT_ID": "1997-051GD", "EPOCH": "2025-12-13T15:03:19.437120", "MEAN_MOTION": 15.29719693, "ECCENTRICITY": 0.00126504, "INCLINATION": 86.3232, "RA_OF_ASC_NODE": 305.3742, "ARG_OF_PERICENTER": 50.2774, "MEAN_ANOMALY": 309.9587, "EPHEMERIS_TYPE": 0, "CLASSIFICATION_TYPE": "U", "NORAD_CAT_ID": 34488, "ELEMENT_SET_NO": 999, "REV_AT_EPOCH": 89253, "BSTAR": 0.0044788684, "MEAN_MOTION_DOT": 0.00131221, "MEAN_MOTION_DDOT": 0}, "tle": {"line1": "1 34488U 97051GD  25347.62730830  .00131221  00000+0  44789-2 0  9992", "line2": "2 34488  86.3232 305.3742 0012650  50.2774 309.9587 15.29719693892536"}}, "geometry": {"type": "Point", "coordinates": [-54.55092212812665, 7.683850192860667]}}, {"type": "Feature", "properties": {"norad_id": 34492, "name": "IRIDIUM 33 DEB", "group": "iridium-33-debris", "lat": -18.78275390499363, "lon": 155.1284477771484, "alt_km": 697.3882900876815, "timestamp": "2025-12-14T11:29:50.445536+00:00", "meta": {"OBJECT_NAME": "IRIDIUM 33 DEB", "OBJECT_ID": "1997-051GH", "EPOCH": "2025-12-12T23:19:24.163680", "MEAN_MOTION": 14.25737057, "ECCENTRICITY": 0.01891196, "INCLINATION": 86.4723, "RA_OF_ASC_NODE": 334.5351, "ARG_OF_PERICENTER": 237.4159, "MEAN_ANOMALY": 151.0038, "EPHEMERIS_TYPE": 0, "CLASSIFICATION_TYPE": "U", "NORAD_CAT_ID": 34492, "ELEMENT_SET_NO": 999, "REV_AT_EPOCH": 85062, "BSTAR": 0.0063651158, "MEAN_MOTION_DOT": 0.00018276, "MEAN_MOTION_DDOT": 0}, "tle": {"line1": "1 34492U 97051GH  25346.97180745  .00018276  00000+0  63651-2 0  9991", "line2": "2 34492  86.4723 334.5351 0189119 237.4159 151.0038 14.25737057850628"}}, "geometry": {"type": "Point", "coordinates": [155.1284477771484, -18.78275390499363]}}, {"type": "Feature", "properties": {"norad_id": 34497, "name": "IRIDIUM 33 DEB", "group": "iridium-33-debris", "lat": 86.26210330297334, "lon": 136.81400863754828, "alt_km": 816.9519203520358, "timestamp": "2025-12-14T11:29:50.445546+00:00", "meta": {"OBJECT_NAME": "IRIDIUM 33 DEB", "OBJECT_ID": "1997-051GN", "EPOCH": "2025-12-13T15:30:28.114272", "MEAN_MOTION": 14.27457632, "ECCENTRICITY": 0.00787124, "INCLINATION": 86.2778, "RA_OF_ASC_NODE": 52.0141, "ARG_OF_PERICENTER": 336.6092, "MEAN_ANOMALY": 154.8087, "EPHEMERIS_TYPE": 0, "CLASSIFICATION_TYPE": "U", "NORAD_CAT_ID": 34497, "ELEMENT_SET_NO": 999, "REV_AT_EPOCH": 86896, "BSTAR": 0.0008195509, "MEAN_MOTION_DOT": 2.096e-05, "MEAN_MOTION_DDOT": 0}, "tle": {"line1": "1 34497U 97051GN  25347.64615873  .00002096  00000+0  81955-3 0  9997", "line2": "2 34497  86.2778  52.0141 0078712 336.6092 154.8087 14.27457632868965"}}, "geometry": {"type": "Point", "coordinates": [136.81400863754828, 86.26210330297334]}}, {"type": "Feature", "properties": {"norad_id": 34508, "name": "IRIDIUM 33 DEB", "group": "iridium-33-debris", "lat": -44.01310498988126, "lon": 98.38868777689724, "alt_km": 810.6063429203132, "timestamp": "2025-12-14T11:29:50.445556+00:00", "meta": {"OBJECT_NAME": "IRIDIUM 33 DEB", "OBJECT_ID": "1997-051GZ", "EPOCH": "2025-12-12T17:57:57.853728", "MEAN_MOTION": 14.3842932, "ECCENTRICITY": 0.00660592, "INCLINATION": 86.3696, "RA_OF_ASC_NODE": 102.6391, "ARG_OF_PERICENTER": 172.9661, "MEAN_ANOMALY": 187.2481, "EPHEMERIS_TYPE": 0, "CLASSIFICATION_TYPE": "U", "NORAD_CAT_ID": 34508, "ELEMENT_SET_NO": 999, "REV_AT_EPOCH": 87309, "BSTAR": 0.002129503, "MEAN_MOTION_DOT": 6.683e-05, "MEAN_MOTION_DDOT": 0}, "tle": {"line1": "1 34508U 97051GZ  25346.74858627  .00006683  00000+0  21295-2 0  9992", "line2": "2 34508  86.3696 102.6391 0066059 172.9661 187.2481 14.38429320873094"}}, "geometry": {"type": "Point", "coordinates": [98.38868777689724, -44.01310498988126]}}, {"type": "Feature", "properties": {"norad_id": 34521, "name": "IRIDIUM 33 DEB", "group": "iridium-33-debris", "lat": -70.43810936082654, "lon": 19.521616983694795, "alt_km": 689.4908022201789, "timestamp": "2025-12-14T11:29:50.445567+00:00", "meta": {"OBJECT_NAME": "IRIDIUM 33 DEB", "OBJECT_ID": "1997-051HN", "EPOCH": "2025-12-13T12:50:41.718912", "MEAN_MOTION": 14.63378229, "ECCENTRICITY": 0.00016341, "INCLINATION": 86.3806, "RA_OF_ASC_NODE": 30.1979, "ARG_OF_PERICENTER": 209.548, "MEAN_ANOMALY": 150.564, "EPHEMERIS_TYPE": 0, "CLASSIFICATION_TYPE": "U", "NORAD_CAT_ID": 34521, "ELEMENT_SET_NO": 999, "REV_AT_EPOCH": 88484, "BSTAR": 0.0010694901, "MEAN_MOTION_DOT": 5.548e-05, "MEAN_MOTION_DDOT": 0}, "tle": {"line1": "1 34521U 97051HN  25347.53520508  .00005548  00000+0  10695-2 0  9990", "line2": "2 34521  86.3806  30.1979 0001634 209.5480 150.5640 14.63378229884847"}}, "geometry": {"type": "Point", "coordinates": [19.521616983694795, -70.43810936082654]}}, {"type": "Feature", "properties": {"norad_id": 34525, "name": "IRIDIUM 33 DEB", "group": "iridium-33-debris", "lat": -19.83701636663945, "lon": 44.79040090385881, "alt_km": 755.7785679950994, "timestamp": "2025-12-14T11:29:50.445577+00:00", "meta": {"OBJECT_NAME": "IRIDIUM 33 DEB", "OBJECT_ID": "1997-051HS", "EPOCH": "2025-12-13T16:11:18.522816", "MEAN_MOTION": 14.42909183, "ECCENTRICITY": 0.00066446, "INCLINATION": 86.3731, "RA_OF_ASC_NODE": 46.4448, "ARG_OF_PERICENTER": 93.1632, "MEAN_ANOMALY": 30.6633, "EPHEMERIS_TYPE": 0, "CLASSIFICATION_TYPE": "U", "NORAD_CAT_ID": 34525, "ELEMENT_SET_NO": 999, "REV_AT_EPOCH": 88101, "BSTAR": 0.00049523387, "MEAN_MOTION_DOT": 1.674e-05, "MEAN_MOTION_DDOT": 0}, "tle": {"line1": "1 34525U 97051HS  25347.67451994  .00001674  00000+0  49523-3 0  9990", "line2": "2 34525  86.3731  46.4448 0006644  93.1632  30.6633 14.42909183881013"}}, "geometry": {"type": "Point", "coordinates": [44.79040090385881, -19.83701636663945]}}]}